[{"OBJECT_NAME":"FLOCK 4G-17","OBJECT_ID":"2025-009CA","EPOCH":"2026-03-09T22:51:51.984864","MEAN_MOTION":15.27385439,"ECCENTRICITY":0.00036407,"INCLINATION":97.3966,"RA_OF_ASC_NODE":151.0229,"ARG_OF_PERICENTER":339.6132,"MEAN_ANOMALY":20.4962,"EPHEMERIS_TYPE":0,"CLASSIFICATION_TYPE":"U","NORAD_CAT_ID":62681,"ELEMENT_SET_NO":999,"REV_AT_EPOCH":12139,"BSTAR":0.00053710713,"MEAN_MOTION_DOT":0.00014342,"MEAN_MOTION_DDOT":0},{"OBJECT_NAME":"STARLINK-32800","OBJECT_ID":"2025-014J","EPOCH":"2026-03-09T23:00:32.728896","MEAN_MOTION":15.27580308,"ECCENTRICITY":0.00013849,"INCLINATION":43.0009,"RA_OF_ASC_NODE":160.2166,"ARG_OF_PERICENTER":273.5722,"MEAN_ANOMALY":86.4972,"EPHEMERIS_TYPE":0,"CLASSIFICATION_TYPE":"U","NORAD_CAT_ID":62743,"ELEMENT_SET_NO":999,"REV_AT_EPOCH":6321,"BSTAR":0.0011843568,"MEAN_MOTION_DOT":0.00032473,"MEAN_MOTION_DDOT":0}]
